OSCAR 7 (AO-7)          
1 07530U 74089B   22342.22757132 -.00000035  00000+0  66123-4 0  9995
2 07530 101.9274 322.7804 0012469  69.0493   3.6740 12.53659208199246
PHASE 3B (AO-10)        
1 14129U 83058B   22341.63329401 -.00000143  00000+0  00000+0 0  9998
2 14129  26.7067  67.7495 6030185 129.4916 301.3201  2.05870375268979
UOSAT 2 (UO-11)         
1 14781U 84021B   22342.36644251  .00001164  00000+0  14570-3 0  9991
2 14781  97.6361 322.0788 0009789 106.3589 253.8703 14.84016291 65836
LUSAT (LO-19)           
1 20442U 90005G   22342.36945942  .00000170  00000+0  78569-4 0  9997
2 20442  98.8192 310.0993 0012185  23.3321 336.8413 14.33120697718018
EYESAT A (AO-27)        
1 22825U 93061C   22342.50561733  .00000119  00000+0  63849-4 0  9995
2 22825  98.8683  17.0654 0007410 263.5373  96.4965 14.30215937523034
ITAMSAT (IO-26)         
1 22826U 93061D   22342.34660053  .00000134  00000+0  68997-4 0  9999
2 22826  98.8628  16.7730 0008009 248.5880 111.4448 14.30566885523277
RADIO ROSTO (RS-15)     
1 23439U 94085A   22342.40688371 -.00000039  00000+0  10000-3 0  9993
2 23439  64.8130 224.2558 0166870 242.9773 115.4032 11.27572988151109
JAS-2 (FO-29)           
1 24278U 96046B   22342.42009639 -.00000027  00000+0  83028-5 0  9999
2 24278  98.5138 342.1497 0350085 191.7002 167.5846 13.53125313299138
TECHSAT 1B (GO-32)      
1 25397U 98043D   22342.57152267  .00000084  00000+0  56732-4 0  9996
2 25397  98.8424 293.6837 0001169  16.6871 343.4345 14.23792958268201
ISS (ZARYA)             
1 25544U 98067A   22342.35972083  .00009124  00000+0  16878-3 0  9998
2 25544  51.6445 193.7595 0004441 137.7594  37.6707 15.49805741372191
PCSAT (NO-44)           
1 26931U 01043C   22342.37547742  .00000168  00000+0  95567-4 0  9991
2 26931  67.0514 329.4554 0005241 271.4572  88.5929 14.30772619106286
SAUDISAT 1C (SO-50)     
1 27607U 02058C   22342.41841193  .00001331  00000+0  20106-3 0  9990
2 27607  64.5535 129.4242 0080910 261.4360  97.7569 14.76458161 74058
CUTE-1 (CO-55)          
1 27844U 03031E   22342.44428491  .00000311  00000+0  15901-3 0  9994
2 27844  98.6793 347.5224 0009162 323.3270  36.7280 14.22553656  8614
CUBESAT XI-IV (CO-57)   
1 27848U 03031J   22341.96966619  .00000265  00000+0  13939-3 0  9990
2 27848  98.6834 347.5339 0009325 340.3792  19.7026 14.22096232  8329
MOZHAYETS 4 (RS-22)     
1 27939U 03042A   22342.54133339  .00000883  00000+0  16386-3 0  9998
2 27939  98.2144 123.5101 0013055  24.0205 336.1606 14.67650779 26577
CUBESAT XI-V            
1 28895U 05043F   22341.65075550  .00001160  00000+0  22667-3 0  9992
2 28895  98.1293 110.6397 0015610 319.0322  40.9707 14.64703661912766
FALCONSAT-3             
1 30776U 07006E   22341.67624960  .00161417  00000+0  91429-3 0  9995
2 30776  35.4231 191.0213 0007904 326.5613  33.4626 15.77572357876684
CUTE-1.7+APD II (CO-65) 
1 32785U 08021C   22342.37458734  .00002994  00000+0  31302-3 0  9995
2 32785  97.6813 308.0055 0013325  23.9014 336.2820 14.90333038792382
DELFI-C3 (DO-64)        
1 32789U 08021G   22342.02675901  .00024451  00000+0  11780-2 0  9997
2 32789  97.3246   2.4363 0011200  79.8072 280.4425 15.18671416798220
SEEDS II (CO-66)        
1 32791U 08021J   22342.34674381  .00005294  00000+0  50394-3 0  9995
2 32791  97.6337 313.3036 0011981 338.8900  21.1825 14.93771930793146
YUBILEINY (RS-30)       
1 32953U 08025A   22342.62313728  .00000024  00000+0  10000-3 0  9991
2 32953  82.5041  75.6217 0018833 237.9732 121.9514 12.43115865659973
KKS-1 (KISEKI)          
1 33499U 09002H   22342.51775531  .00001146  00000+0  17277-3 0  9994
2 33499  98.1938 227.2278 0010074 114.1861 246.0402 14.76313261745921
SWISSCUBE               
1 35932U 09051B   22342.33184928  .00000977  00000+0  22760-3 0  9990
2 35932  98.5439 202.9421 0006531 229.1563 130.9069 14.57114702701418
BEESAT-1                
1 35933U 09051C   22342.35525826  .00000857  00000+0  20103-3 0  9995
2 35933  98.5374 204.4662 0004640 242.4136 117.6591 14.57099967701499
ITUPSAT1                
1 35935U 09051E   22342.34248000  .00000789  00000+0  18947-3 0  9999
2 35935  98.5476 204.4614 0006915 248.1180 111.9282 14.56191748701189
XIWANG-1 (HOPE-1)       
1 36122U 09072B   22342.39469309 -.00000018  00000+0  65728-4 0  9999
2 36122 100.2101 307.5440 0007008 304.5750  55.4701 13.16375027623696
JUGNU                   
1 37839U 11058B   22342.31346516  .00000402  00000+0  71698-4 0  9997
2 37839  19.9596 200.8905 0018854 273.7859 242.8212 14.12839699576755
SRMSAT                  
1 37841U 11058D   22342.56034404  .00000441  00000+0  97172-4 0  9995
2 37841  19.9723 282.4784 0012031  97.3608  58.6255 14.10800463575859
M-CUBED & EXP-1 PRIME   
1 37855U 11061F   22342.30858803  .00018346  00000+0  73380-3 0  9990
2 37855 101.7138 194.1923 0142791 260.1516  98.3555 15.16267153607549
STRAND-1                
1 39090U 13009E   22342.50587365  .00000302  00000+0  12000-3 0  9996
2 39090  98.3920 176.0397 0010045 110.4225 249.8040 14.35381089512368
SOMP                    
1 39134U 13015E   22342.04528251  .00032343  00000+0  93827-3 0  9996
2 39134  64.8583 209.8923 0029894 254.6399 105.1432 15.34939388533436
BEESAT-3                
1 39135U 13015F   22342.22486333  .00021352  00000+0  75951-3 0  9997
2 39135  64.8646 250.1391 0035291 257.1327 102.5862 15.28414521532620
BEESAT-2                
1 39136U 13015G   22342.20433238  .00020277  00000+0  75960-3 0  9997
2 39136  64.8740 259.5318 0025176 289.7952  70.0464 15.27031078532408
ZACUBE-1 (TSHEPISOSAT)  
1 39417U 13066B   22342.35102405  .00002231  00000+0  27286-3 0  9998
2 39417  97.6606 306.2861 0056285 192.8220 167.1567 14.83097068488892
GOMX-1                  
1 39430U 13066Q   22342.48398745  .00001401  00000+0  25578-3 0  9991
2 39430  97.7962 239.6539 0147135 215.6044 143.5285 14.60698350481699
CUBEBUG-2 (LO-74)       
1 39440U 13066AA  22342.32595996  .00003005  00000+0  40681-3 0  9996
2 39440  97.7498 292.8343 0076333 287.9190  71.3709 14.77694029485952
FUNCUBE-1 (AO-73)       
1 39444U 13066AE  22342.36806759  .00002690  00000+0  31815-3 0  9994
2 39444  97.6477 308.7419 0055256 179.6219 180.5048 14.84340162487318
UWE-3                   
1 39446U 13066AG  22342.31597920  .00002562  00000+0  33088-3 0  9990
2 39446  97.7102 299.1486 0066194 241.9616 117.4892 14.80290112486174
SPROUT                  
1 39770U 14029E   22342.54927049  .00008765  00000+0  83528-3 0  9999
2 39770  97.9542 101.0157 0008068 226.7318 133.3296 14.93590582463624
UNISAT-6                
1 40012U 14033C   22342.30577919  .00001846  00000+0  27230-3 0  9997
2 40012  97.6606 161.0705 0056020 316.8033  42.8789 14.75415086455610
DUCHIFAT-1              
1 40021U 14033M   22342.13904571  .00005240  00000+0  49332-3 0  9995
2 40021  98.0344 295.8268 0011535 180.2536 179.8679 14.94255517460625
QB50P1                  
1 40025U 14033R   22342.55495776  .00003393  00000+0  34486-3 0  9998
2 40025  97.9775 281.5299 0011057 197.4033 162.6807 14.91448169459706
NUDT-PHONESAT           
1 40900U 15049B   22342.56017649  .00056437  00000+0  10609-2 0  9995
2 40900  97.3866   2.6201 0008666  30.5754  70.8496 15.48356229401425
ZDPS 2A                 
1 40901U 15049C   22342.28031337  .00019031  00000+0  68869-3 0  9996
2 40901  97.4559 350.6740 0012700  90.4128 269.8567 15.28384389399964
ZDPS 2B                 
1 40902U 15049D   22342.55272623  .00015810  00000+0  56578-3 0  9997
2 40902  97.4661 348.9009 0012656  86.3966  13.1863 15.28792699399989
XW-2A                   
1 40903U 15049E   22342.57123135  .00045418  00000+0  48570-3 0  9993
2 40903  97.1548  42.1446 0007399 180.4227 315.6066 15.63731021406360
KAITUO 1A               
1 40904U 15049F   22342.58582334  .00006071  00000+0  28504-3 0  9992
2 40904  97.4984 343.6866 0014261 118.6816  29.4411 15.19912649399291
2015-049G               
1 40905U 15049G   22342.58851468  .00004015  00000+0  20146-3 0  9990
2 40905  97.5201 340.9011 0015809 123.7921  23.7816 15.17785418399016
XW-2C                   
1 40906U 15049H   22342.52960090  .00006582  00000+0  29805-3 0  9999
2 40906  97.4956 344.8114 0014787 107.3652 351.2694 15.21120461399360
XW-2D                   
1 40907U 15049J   22342.59381905  .00007713  00000+0  33909-3 0  9996
2 40907  97.4941 345.0371 0014077 102.2598 351.5349 15.22087238399431
LILACSAT-2              
1 40908U 15049K   22342.58889238  .00003477  00000+0  17919-3 0  9994
2 40908  97.5220 341.6347 0016029 128.2526  19.4671 15.16937401398870
XW-2E                   
1 40909U 15049L   22342.48051970  .00012732  00000+0  47806-3 0  9990
2 40909  97.4626 349.9351 0013105  80.8003  75.4963 15.27256045399935
XW-2F                   
1 40910U 15049M   22342.58964949  .00012704  00000+0  48482-3 0  9992
2 40910  97.4713 349.2242 0013967  81.9553  12.8420 15.26705561399714
XW-2B                   
1 40911U 15049N   22342.56764154  .00007513  00000+0  33173-3 0  9990
2 40911  97.4936 345.5493 0014085 104.1427 351.5433 15.21946850399315
KAITUO 1B               
1 40912U 15049P   22342.54197359  .00015420  00000+0  52558-3 0  9990
2 40912  97.4309 353.5355 0013563  50.6095  49.3838 15.30376218400333
TIANWANG 1A (TW-1A)     
1 40928U 15051D   22342.55239567  .00332943  44119-4  97216-3 0  9995
2 40928  97.0082   6.0867 0006477 107.7577  47.9045 15.92774851405553
LAPAN-A2                
1 40931U 15052B   22341.46611562  .00001032  00000+0  54075-4 0  9993
2 40931   5.9965  14.8235 0012932  96.2268 263.9400 14.76935061388966
E-ST@R-II               
1 41459U 16025D   22342.46674594  .00012637  00000+0  49115-3 0  9996
2 41459  98.1915 161.2147 0133524  37.4618 323.5878 15.18225988363857
AAUSAT 4                
1 41460U 16025E   22342.47738454  .00026486  00000+0  83247-3 0  9996
2 41460  98.1784 169.3350 0107279   6.6983  23.6275 15.27433481364421
NUSAT-1 (FRESCO)        
1 41557U 16033B   22342.54342285  .00021160  00000+0  52826-3 0  9996
2 41557  97.3905  81.1317 0010831 112.4834 346.9420 15.40135967364129
